NORAD_CAT_ID,OBJECT_NAME,OBJECT_TYPE,EPOCH,MEAN_MOTION,ECCENTRICITY,INCLINATION,RA_OF_ASC_NODE,ARG_OF_PERICENTER,MEAN_ANOMALY,BSTAR,MEAN_MOTION_DOT,MEAN_MOTION_DDOT,TLE_LINE0,TLE_LINE1,TLE_LINE2,SEMIMAJOR_AXIS,PERIOD,APOGEE,PERIGEE,DECAYED
51987.0,STARLINK-3644,PAYLOAD,2022-09-13 06:00:00,15.08827741,0.0001408,53.2193,355.8129,59.1402,304.9523,0.0001060999999999,1.401e-05,0.0,0 STARLINK-3644,1 51987U 22025AH  22256.25001157  .00001401  00000-0  10610-3 0  9996,2 51987  53.2193 355.8129 0001408  59.1402 304.9523 15.08827741 29901,6917.918000000002,95.438,540.757,538.809,0.0
51987.0,STARLINK-3644,PAYLOAD,2022-09-13 14:00:01,15.08812255,0.0001628,53.2189,354.3184,52.9005,322.7768,0.00066286,0.00010269,0.0,0 STARLINK-3644,1 51987U 22025AH  22256.58334491  .00010269  00000-0  66286-3 0  9994,2 51987  53.2189 354.3184 0001628  52.9005 322.7768 15.08812255  1302,6917.965,95.439,540.956,538.7040000000002,0.0
51987.0,STARLINK-3644,PAYLOAD,2022-09-13 22:00:00,15.08837959,0.0001587,53.2184,352.8216,53.324,333.9067,-0.0012365,-0.00019912,0.0,0 STARLINK-3644,1 51987U 22025AH  22256.91667824 -.00019912  00000-0 -12365-2 0  9994,2 51987  53.2184 352.8216 0001587  53.3240 333.9067 15.08837959  1300,6917.887,95.438,540.849,538.654,0.0
51987.0,STARLINK-3644,PAYLOAD,2022-09-14 06:00:00,15.08656732,0.0001320999999999,53.2175,351.3181,54.1654,344.6844,0.017181,0.00282899,0.0,0 STARLINK-3644,1 51987U 22025AH  22257.25001157  .00282899  00000-0  17181-1 0  9997,2 51987  53.2175 351.3181 0001321  54.1654 344.6844 15.08656732 30053,6918.441,95.449,541.22,539.3919999999998,0.0
51987.0,STARLINK-3644,PAYLOAD,2022-09-14 14:00:01,15.08826854,0.0001668,53.2182,349.8269,56.619,353.7681,-0.0016590999999999,-0.00026586,0.0,0 STARLINK-3644,1 51987U 22025AH  22257.58334491 -.00026586  00000-0 -16591-2 0  9999,2 51987  53.2182 349.8269 0001668  56.6190 353.7681 15.08826854 30106,6917.920999999999,95.438,540.939,538.632,0.0
51987.0,STARLINK-3644,PAYLOAD,2022-09-14 22:00:00,15.08847621,0.0001647,53.2181,348.3325,55.9861,6.0212,-0.0011802,-0.00019026,0.0,0 STARLINK-3644,1 51987U 22025AH  22257.91667824 -.00019026  00000-0 -11802-2 0  9996,2 51987  53.2181 348.3325 0001647  55.9861   6.0212 15.08847621 30154,6917.857,95.437,540.861,538.5830000000002,0.0
51987.0,STARLINK-3644,PAYLOAD,2022-09-15 14:00:01,15.08824859,0.000185,53.2181,345.3408,56.8154,28.3948,0.0013591,0.00021399,0.0,0 STARLINK-3644,1 51987U 22025AH  22258.58334491  .00021399  00000-0  13591-2 0  9992,2 51987  53.2181 345.3408 0001850  56.8154  28.3948 15.08824859  1300,6917.927,95.439,541.071,538.512,0.0
51987.0,STARLINK-3644,PAYLOAD,2022-09-15 16:00:00,15.08813015,0.0001836,53.2181,344.9668,54.4682,123.642,0.0034533,0.0005506,0.0,0 STARLINK-3644,1 51987U 22025AH  22258.66667824  .00055060  00000-0  34533-2 0  9991,2 51987  53.2181 344.9668 0001836  54.4682 123.6420 15.08813015 30271,6917.9630000000025,95.439,541.0980000000002,538.558,0.0
51987.0,STARLINK-3644,PAYLOAD,2022-09-15 23:09:47,15.08838776,0.0001594,53.2191,343.6259,56.8058,303.3087,0.0001592,2.246e-05,0.0,0 STARLINK-3644,1 51987U 22025AH  22258.96512948  .00002246  00000-0  15920-3 0  9998,2 51987  53.2191 343.6259 0001594  56.8058 303.3087 15.08838776 30310,6917.884,95.438,540.852,538.646,0.0
51987.0,STARLINK-3644,PAYLOAD,2022-09-16 11:52:52,15.08837953,0.0001655,53.2197,341.2469,56.583,303.5321,5.427899999999999e-05,5.76e-06,0.0,0 STARLINK-3644,1 51987U 22025AH  22259.49505235  .00000576  00000-0  54279-4 0  9993,2 51987  53.2197 341.2469 0001655  56.5830 303.5321 15.08837953 29302,6917.887,95.438,540.8969999999998,538.607,0.0
51987.0,STARLINK-3644,PAYLOAD,2022-09-16 15:03:38,15.08836225,0.0001607,53.2195,340.6526,57.4438,302.6709,1.792e-05,-3e-08,0.0,0 STARLINK-3644,1 51987U 22025AH  22259.62753414 -.00000003  00000-0  17920-4 0  9990,2 51987  53.2195 340.6526 0001607  57.4438 302.6709 15.08836225 30413,6917.892,95.438,540.869,538.645,0.0
51987.0,STARLINK-3644,PAYLOAD,2022-09-16 23:00:35,15.08823733,0.0001730999999999,53.2195,339.164,58.3996,301.7165,-6.097100000000001e-06,-3.85e-06,0.0,0 STARLINK-3644,1 51987U 22025AH  22259.95874500 -.00000385  00000-0 -60971-5 0  9995,2 51987  53.2195 339.1640 0001731  58.3996 301.7165 15.08823733 30461,6917.93,95.439,540.993,538.5980000000002,0.0
51987.0,STARLINK-3644,PAYLOAD,2022-09-17 11:43:40,15.08837912,0.0001618,53.2197,336.7852,61.4966,298.6189,-4.7294e-05,-1.041e-05,0.0,0 STARLINK-3644,1 51987U 22025AH  22260.48865921 -.00001041  00000-0 -47294-4 0  9994,2 51987  53.2197 336.7852 0001618  61.4966 298.6189 15.08837912 30540,6917.887,95.438,540.871,538.632,0.0
51987.0,STARLINK-3644,PAYLOAD,2022-09-17 14:54:26,15.08837488,0.0001662,53.2195,336.1906,61.1441,298.9718,-2.4836e-05,-6.83e-06,0.0,0 STARLINK-3644,1 51987U 22025AH  22260.62113916 -.00000683  00000-0 -24836-4 0  9998,2 51987  53.2195 336.1906 0001662  61.1441 298.9718 15.08837488 29475,6917.888000000001,95.438,540.903,538.6030000000002,0.0
51987.0,STARLINK-3644,PAYLOAD,2022-09-18 11:34:27,15.08833965,0.0001595999999999,53.2193,332.3251,59.7486,300.3664,6.934e-05,8.16e-06,0.0,0 STARLINK-3644,1 51987U 22025AH  22261.48226183  .00000816  00000-0  69340-4 0  9999,2 51987  53.2193 332.3251 0001596  59.7486 300.3664 15.08833965 29601,6917.899,95.438,540.868,538.66,0.0
51987.0,STARLINK-3644,PAYLOAD,2022-09-19 03:28:18,15.0883459,0.000162,53.2193,329.3522,56.7823,303.3324,0.00016114,2.277e-05,0.0,0 STARLINK-3644,1 51987U 22025AH  22262.14466179  .00002277  00000-0  16114-3 0  9997,2 51987  53.2193 329.3522 0001620  56.7823 303.3324 15.08834590 30791,6917.897,95.438,540.883,538.641,0.0
51987.0,STARLINK-3644,PAYLOAD,2022-09-19 11:25:14,15.08834512,0.0001597,53.2192,327.8651,57.74,302.3747,7.4925e-05,9.04e-06,0.0,0 STARLINK-3644,1 51987U 22025AH  22262.47586550  .00000904  00000-0  74925-4 0  9999,2 51987  53.2192 327.8651 0001597  57.7400 302.3747 15.08834512 29757,6917.897,95.438,540.867,538.6569999999998,0.0
51987.0,STARLINK-3644,PAYLOAD,2022-09-20 11:16:02,15.08836471,0.0001633,53.2185,323.4044,53.9498,306.1646,4.4991e-05,4.28e-06,0.0,0 STARLINK-3644,1 51987U 22025AH  22263.46946768  .00000428  00000-0  44991-4 0  9991,2 51987  53.2185 323.4044 0001633  53.9498 306.1646 15.08836471 29906,6917.891,95.438,540.886,538.626,0.0
51987.0,STARLINK-3644,PAYLOAD,2022-09-21 04:45:16,15.08841935,0.0001727,53.2191,320.134,57.839,302.2769,0.00010961,1.457e-05,0.0,0 STARLINK-3644,1 51987U 22025AH  22264.19810310  .00001457  00000-0  10961-3 0  9997,2 51987  53.2191 320.1340 0001727  57.8390 302.2769 15.08841935 30012,6917.874,95.437,540.934,538.545,0.0
51987.0,STARLINK-3644,PAYLOAD,2022-09-23 10:48:23,15.08837011,0.0001666999999999,53.219,310.0254,47.12300000000001,312.9902,4.474e-05,4.24e-06,0.0,0 STARLINK-3644,1 51987U 22025AH  22266.45027212  .00000424  00000-0  44740-4 0  9995,2 51987  53.2190 310.0254 0001667  47.1230 312.9902 15.08837011 31446,6917.89,95.438,540.908,538.601,0.0
51987.0,STARLINK-3644,PAYLOAD,2022-09-24 09:03:47,15.0883565,0.0001740999999999,53.2192,305.8628,45.7612,314.3523,8.7116e-05,1.099e-05,0.0,0 STARLINK-3644,1 51987U 22025AH  22267.37763312  .00001099  00000-0  87116-4 0  9998,2 51987  53.2192 305.8628 0001741  45.7612 314.3523 15.08835650 30492,6917.894,95.438,540.9630000000002,538.554,0.0
51987.0,STARLINK-3644,PAYLOAD,2022-09-25 08:54:33,15.08848645,0.0001823,53.2186,301.4025,47.53,312.5846,0.00013851,1.917e-05,0.0,0 STARLINK-3644,1 51987U 22025AH  22268.37122494  .00001917  00000-0  13851-3 0  9992,2 51987  53.2186 301.4025 0001823  47.5300 312.5846 15.08848645 30646,6917.854,95.437,540.98,538.4580000000002,0.0
51987.0,STARLINK-3644,PAYLOAD,2022-09-26 07:09:58,15.0883715,0.0001511,53.2191,297.2386,62.8033,297.3113,3.0473e-05,1.97e-06,0.0,0 STARLINK-3644,1 51987U 22025AH  22269.29859432  .00000197  00000-0  30473-4 0  9992,2 51987  53.2191 297.2386 0001511  62.8033 297.3113 15.08837150 31873,6917.889,95.438,540.799,538.7090000000002,0.0
51987.0,STARLINK-3644,PAYLOAD,2022-09-27 08:36:09,15.08837981,0.0001465999999999,53.2191,292.4813,86.1799,273.9361,-4.5056e-05,-1.005e-05,0.0,0 STARLINK-3644,1 51987U 22025AH  22270.35843872 -.00001005  00000-0 -45056-4 0  9996,2 51987  53.2191 292.4813 0001466  86.1799 273.9361 15.08837981 32038,6917.887,95.438,540.766,538.737,0.0
51987.0,STARLINK-3644,PAYLOAD,2022-09-28 10:02:18,15.08853623,0.0001841,53.2179,287.7223,49.7214,310.3939,0.00036322,5.499e-05,0.0,0 STARLINK-3644,1 51987U 22025AH  22271.41826823  .00005499  00000-0  36322-3 0  9995,2 51987  53.2179 287.7223 0001841  49.7214 310.3939 15.08853623 32195,6917.839,95.437,540.977,538.43,0.0
51987.0,STARLINK-3644,PAYLOAD,2022-09-28 11:37:41,15.08860683,0.0001773,53.2179,287.427,50.9324,309.1826,0.00046675,7.152e-05,0.0,0 STARLINK-3644,1 51987U 22025AH  22271.48450511  .00007152  00000-0  46675-3 0  9999,2 51987  53.2179 287.4270 0001773  50.9324 309.1826 15.08860683 31110,6917.816999999999,95.436,540.909,538.456,0.0
51987.0,STARLINK-3644,PAYLOAD,2022-09-29 01:56:09,15.08848666,0.0001825,53.218,284.7476,54.4528,305.6634,0.00012091,1.637e-05,0.0,0 STARLINK-3644,1 51987U 22025AH  22272.08066938  .00001637  00000-0  12091-3 0  9999,2 51987  53.2180 284.7476 0001825  54.4528 305.6634 15.08848666 32298,6917.854,95.437,540.981,538.456,0.0
51987.0,STARLINK-3644,PAYLOAD,2022-09-29 09:53:05,15.08822898,0.0001608,53.2166,283.2628,48.057,312.0559,-0.00057795,-9.47e-05,0.0,0 STARLINK-3644,1 51987U 22025AH  22272.41187362 -.00009470  00000-0 -57795-3 0  9996,2 51987  53.2166 283.2628 0001608  48.0570 312.0559 15.08822898 32343,6917.933000000001,95.439,540.91,538.685,0.0
51987.0,STARLINK-3644,PAYLOAD,2022-09-30 09:43:54,15.08826657,0.0001841999999999,53.2171,278.8012,50.1224,309.993,0.00019641,2.838e-05,0.0,0 STARLINK-3644,1 51987U 22025AH  22273.40549011  .00002838  00000-0  19641-3 0  9996,2 51987  53.2171 278.8012 0001842  50.1224 309.9930 15.08826657 32497,6917.920999999999,95.438,541.06,538.512,0.0
